QIANFAN-33              
1 61566U 24185Q   26199.84773306  .00000148  00000+0  97011-4 0  9993
2 61566  88.9791  54.4932 0008264  21.2836 338.8683 13.96720872 99605
QIANFAN-34              
1 61567U 24185R   26199.77410421  .00000072  00000+0  37553-4 0  9993
2 61567  88.9769  53.7765 0006345  22.1712 337.9741 14.02484348 99910
QIANFAN-35              
1 61568U 24185S   26199.88069176  .00000306  00000+0  11677-3 0  9991
2 61568  88.9797  51.2767 0004216 301.5469  58.5314 14.28300236101316
QIANFAN-36              
1 61569U 24185T   26199.77987117  .00000040  00000+0  39980-4 0  9997
2 61569  88.9770  58.3250 0007892 119.1521 241.0423 13.55640716 97467
QIANFAN-37              
1 62238U 24232B   26199.81244767  .00000019  00000+0  11034-4 0  9992
2 62238  89.0070  19.4072 0002106 108.6838 251.4542 13.51011387128614
QIANFAN-38              
1 62239U 24232C   26199.83712000  .00000036  00000+0  38145-4 0  9996
2 62239  89.0077  19.3353 0012542 287.6809  72.2972 13.51022229128673
QIANFAN-39              
1 62240U 24232D   26199.80753898  .00000072  00000+0  24320-4 0  9995
2 62240  89.0066  12.4640 0018512  85.4699 274.8608 14.25532828132450
QIANFAN-40              
1 62241U 24232E   26199.87001874  .00000025  00000+0  20355-4 0  9995
2 62241  89.0104  18.9773 0011685 297.0021  62.9937 13.51009555129042
QIANFAN-41              
1 62242U 24232F   26199.87822977  .00000019  00000+0  11149-4 0  9995
2 62242  89.0075  19.2786 0011910 282.9689  77.0131 13.51012456128701
QIANFAN-42              
1 62243U 24232G   26199.80403575  .00000069  00000+0  23228-4 0  9994
2 62243  89.0064  12.5438 0017377  91.4696 268.8487 14.24621312132419
QIANFAN-43              
1 62244U 24232H   26199.87411101  .00000023  00000+0  17192-4 0  9999
2 62244  89.0079  19.3540 0013501 288.8289  71.1398 13.51011858 97312
QIANFAN-44              
1 62245U 24232J   26199.86170933  .00000023  00000+0  16865-4 0  9990
2 62245  89.0078  19.1623 0011681 285.7734  74.2129 13.51013663128788
QIANFAN-45              
1 62246U 24232K   26199.82889299  .00000022  00000+0  16404-4 0  9997
2 62246  89.0081  19.3200 0012350 285.2840  74.6946 13.51011095128703
QIANFAN-46              
1 62247U 24232L   26199.85354498  .00000019  00000+0  10475-4 0  9997
2 62247  89.0077  19.3776 0012464 291.6063  68.3760 13.51011723128668
QIANFAN-47              
1 62248U 24232M   26199.85767625  .00000036  00000+0  37605-4 0  9991
2 62248  89.0073  19.3013 0012868 290.5395  69.4375 13.51011318128690
QIANFAN-48              
1 62249U 24232N   26199.82048407  .00000030  00000+0  27434-4 0  9992
2 62249  89.0077  19.3154 0015164 293.1765  66.7789 13.51015942128699
