{"fetched_at":"2026-07-19T07:04:52.450Z","source":"https://celestrak.org/NORAD/elements/gp.php?GROUP=qianfan&FORMAT=JSON","constellation":"qianfan","records":[{"OBJECT_NAME":"QIANFAN-33","OBJECT_ID":"2024-185Q","EPOCH":"2026-07-18T20:20:44.136384","CLASSIFICATION_TYPE":"U","MEAN_MOTION":13.96720872,"ECCENTRICITY":0.0008264,"INCLINATION":88.9791,"RA_OF_ASC_NODE":54.4932,"ARG_OF_PERICENTER":21.2836,"MEAN_ANOMALY":338.8683,"EPHEMERIS_TYPE":0,"NORAD_CAT_ID":61566,"ELEMENT_SET_NO":999,"REV_AT_EPOCH":9960,"BSTAR":0.000097011,"MEAN_MOTION_DOT":0.00000148,"MEAN_MOTION_DDOT":0},{"OBJECT_NAME":"QIANFAN-34","OBJECT_ID":"2024-185R","EPOCH":"2026-07-18T18:34:42.603744","CLASSIFICATION_TYPE":"U","MEAN_MOTION":14.02484348,"ECCENTRICITY":0.0006345,"INCLINATION":88.9769,"RA_OF_ASC_NODE":53.7765,"ARG_OF_PERICENTER":22.1712,"MEAN_ANOMALY":337.9741,"EPHEMERIS_TYPE":0,"NORAD_CAT_ID":61567,"ELEMENT_SET_NO":999,"REV_AT_EPOCH":9991,"BSTAR":0.000037553,"MEAN_MOTION_DOT":7.2e-7,"MEAN_MOTION_DDOT":0},{"OBJECT_NAME":"QIANFAN-35","OBJECT_ID":"2024-185S","EPOCH":"2026-07-18T21:08:11.768064","CLASSIFICATION_TYPE":"U","MEAN_MOTION":14.28300236,"ECCENTRICITY":0.0004216,"INCLINATION":88.9797,"RA_OF_ASC_NODE":51.2767,"ARG_OF_PERICENTER":301.5469,"MEAN_ANOMALY":58.5314,"EPHEMERIS_TYPE":0,"NORAD_CAT_ID":61568,"ELEMENT_SET_NO":999,"REV_AT_EPOCH":10131,"BSTAR":0.00011677,"MEAN_MOTION_DOT":0.00000306,"MEAN_MOTION_DDOT":0},{"OBJECT_NAME":"QIANFAN-36","OBJECT_ID":"2024-185T","EPOCH":"2026-07-18T18:43:00.869088","CLASSIFICATION_TYPE":"U","MEAN_MOTION":13.55640716,"ECCENTRICITY":0.0007892,"INCLINATION":88.977,"RA_OF_ASC_NODE":58.325,"ARG_OF_PERICENTER":119.1521,"MEAN_ANOMALY":241.0423,"EPHEMERIS_TYPE":0,"NORAD_CAT_ID":61569,"ELEMENT_SET_NO":999,"REV_AT_EPOCH":9746,"BSTAR":0.00003998,"MEAN_MOTION_DOT":4e-7,"MEAN_MOTION_DDOT":0},{"OBJECT_NAME":"QIANFAN-37","OBJECT_ID":"2024-232B","EPOCH":"2026-07-18T19:29:55.478688","CLASSIFICATION_TYPE":"U","MEAN_MOTION":13.51011387,"ECCENTRICITY":0.0002106,"INCLINATION":89.007,"RA_OF_ASC_NODE":19.4072,"ARG_OF_PERICENTER":108.6838,"MEAN_ANOMALY":251.4542,"EPHEMERIS_TYPE":0,"NORAD_CAT_ID":62238,"ELEMENT_SET_NO":999,"REV_AT_EPOCH":12861,"BSTAR":0.000011034,"MEAN_MOTION_DOT":1.9e-7,"MEAN_MOTION_DDOT":0},{"OBJECT_NAME":"QIANFAN-38","OBJECT_ID":"2024-232C","EPOCH":"2026-07-18T20:05:27.168000","CLASSIFICATION_TYPE":"U","MEAN_MOTION":13.51022229,"ECCENTRICITY":0.0012542,"INCLINATION":89.0077,"RA_OF_ASC_NODE":19.3353,"ARG_OF_PERICENTER":287.6809,"MEAN_ANOMALY":72.2972,"EPHEMERIS_TYPE":0,"NORAD_CAT_ID":62239,"ELEMENT_SET_NO":999,"REV_AT_EPOCH":12867,"BSTAR":0.000038145,"MEAN_MOTION_DOT":3.6e-7,"MEAN_MOTION_DDOT":0},{"OBJECT_NAME":"QIANFAN-39","OBJECT_ID":"2024-232D","EPOCH":"2026-07-18T19:22:51.367872","CLASSIFICATION_TYPE":"U","MEAN_MOTION":14.25532828,"ECCENTRICITY":0.0018512,"INCLINATION":89.0066,"RA_OF_ASC_NODE":12.464,"ARG_OF_PERICENTER":85.4699,"MEAN_ANOMALY":274.8608,"EPHEMERIS_TYPE":0,"NORAD_CAT_ID":62240,"ELEMENT_SET_NO":999,"REV_AT_EPOCH":13245,"BSTAR":0.00002432,"MEAN_MOTION_DOT":7.2e-7,"MEAN_MOTION_DDOT":0},{"OBJECT_NAME":"QIANFAN-40","OBJECT_ID":"2024-232E","EPOCH":"2026-07-18T20:52:49.619136","CLASSIFICATION_TYPE":"U","MEAN_MOTION":13.51009555,"ECCENTRICITY":0.0011685,"INCLINATION":89.0104,"RA_OF_ASC_NODE":18.9773,"ARG_OF_PERICENTER":297.0021,"MEAN_ANOMALY":62.9937,"EPHEMERIS_TYPE":0,"NORAD_CAT_ID":62241,"ELEMENT_SET_NO":999,"REV_AT_EPOCH":12904,"BSTAR":0.000020355,"MEAN_MOTION_DOT":2.5e-7,"MEAN_MOTION_DDOT":0},{"OBJECT_NAME":"QIANFAN-41","OBJECT_ID":"2024-232F","EPOCH":"2026-07-18T21:04:39.052128","CLASSIFICATION_TYPE":"U","MEAN_MOTION":13.51012456,"ECCENTRICITY":0.001191,"INCLINATION":89.0075,"RA_OF_ASC_NODE":19.2786,"ARG_OF_PERICENTER":282.9689,"MEAN_ANOMALY":77.0131,"EPHEMERIS_TYPE":0,"NORAD_CAT_ID":62242,"ELEMENT_SET_NO":999,"REV_AT_EPOCH":12870,"BSTAR":0.000011149,"MEAN_MOTION_DOT":1.9e-7,"MEAN_MOTION_DDOT":0},{"OBJECT_NAME":"QIANFAN-42","OBJECT_ID":"2024-232G","EPOCH":"2026-07-18T19:17:48.688800","CLASSIFICATION_TYPE":"U","MEAN_MOTION":14.24621312,"ECCENTRICITY":0.0017377,"INCLINATION":89.0064,"RA_OF_ASC_NODE":12.5438,"ARG_OF_PERICENTER":91.4696,"MEAN_ANOMALY":268.8487,"EPHEMERIS_TYPE":0,"NORAD_CAT_ID":62243,"ELEMENT_SET_NO":999,"REV_AT_EPOCH":13241,"BSTAR":0.000023228,"MEAN_MOTION_DOT":6.9e-7,"MEAN_MOTION_DDOT":0},{"OBJECT_NAME":"QIANFAN-43","OBJECT_ID":"2024-232H","EPOCH":"2026-07-18T20:58:43.191264","CLASSIFICATION_TYPE":"U","MEAN_MOTION":13.51011858,"ECCENTRICITY":0.0013501,"INCLINATION":89.0079,"RA_OF_ASC_NODE":19.354,"ARG_OF_PERICENTER":288.8289,"MEAN_ANOMALY":71.1398,"EPHEMERIS_TYPE":0,"NORAD_CAT_ID":62244,"ELEMENT_SET_NO":999,"REV_AT_EPOCH":9731,"BSTAR":0.000017192,"MEAN_MOTION_DOT":2.3e-7,"MEAN_MOTION_DDOT":0},{"OBJECT_NAME":"QIANFAN-44","OBJECT_ID":"2024-232J","EPOCH":"2026-07-18T20:40:51.686112","CLASSIFICATION_TYPE":"U","MEAN_MOTION":13.51013663,"ECCENTRICITY":0.0011681,"INCLINATION":89.0078,"RA_OF_ASC_NODE":19.1623,"ARG_OF_PERICENTER":285.7734,"MEAN_ANOMALY":74.2129,"EPHEMERIS_TYPE":0,"NORAD_CAT_ID":62245,"ELEMENT_SET_NO":999,"REV_AT_EPOCH":12878,"BSTAR":0.000016865,"MEAN_MOTION_DOT":2.3e-7,"MEAN_MOTION_DDOT":0},{"OBJECT_NAME":"QIANFAN-45","OBJECT_ID":"2024-232K","EPOCH":"2026-07-18T19:53:36.354336","CLASSIFICATION_TYPE":"U","MEAN_MOTION":13.51011095,"ECCENTRICITY":0.001235,"INCLINATION":89.0081,"RA_OF_ASC_NODE":19.32,"ARG_OF_PERICENTER":285.284,"MEAN_ANOMALY":74.6946,"EPHEMERIS_TYPE":0,"NORAD_CAT_ID":62246,"ELEMENT_SET_NO":999,"REV_AT_EPOCH":12870,"BSTAR":0.000016404,"MEAN_MOTION_DOT":2.2e-7,"MEAN_MOTION_DDOT":0},{"OBJECT_NAME":"QIANFAN-46","OBJECT_ID":"2024-232L","EPOCH":"2026-07-18T20:29:06.286272","CLASSIFICATION_TYPE":"U","MEAN_MOTION":13.51011723,"ECCENTRICITY":0.0012464,"INCLINATION":89.0077,"RA_OF_ASC_NODE":19.3776,"ARG_OF_PERICENTER":291.6063,"MEAN_ANOMALY":68.376,"EPHEMERIS_TYPE":0,"NORAD_CAT_ID":62247,"ELEMENT_SET_NO":999,"REV_AT_EPOCH":12866,"BSTAR":0.000010475,"MEAN_MOTION_DOT":1.9e-7,"MEAN_MOTION_DDOT":0},{"OBJECT_NAME":"QIANFAN-47","OBJECT_ID":"2024-232M","EPOCH":"2026-07-18T20:35:03.228000","CLASSIFICATION_TYPE":"U","MEAN_MOTION":13.51011318,"ECCENTRICITY":0.0012868,"INCLINATION":89.0073,"RA_OF_ASC_NODE":19.3013,"ARG_OF_PERICENTER":290.5395,"MEAN_ANOMALY":69.4375,"EPHEMERIS_TYPE":0,"NORAD_CAT_ID":62248,"ELEMENT_SET_NO":999,"REV_AT_EPOCH":12869,"BSTAR":0.000037605,"MEAN_MOTION_DOT":3.6e-7,"MEAN_MOTION_DDOT":0},{"OBJECT_NAME":"QIANFAN-48","OBJECT_ID":"2024-232N","EPOCH":"2026-07-18T19:41:29.823648","CLASSIFICATION_TYPE":"U","MEAN_MOTION":13.51015942,"ECCENTRICITY":0.0015164,"INCLINATION":89.0077,"RA_OF_ASC_NODE":19.3154,"ARG_OF_PERICENTER":293.1765,"MEAN_ANOMALY":66.7789,"EPHEMERIS_TYPE":0,"NORAD_CAT_ID":62249,"ELEMENT_SET_NO":999,"REV_AT_EPOCH":12869,"BSTAR":0.000027434,"MEAN_MOTION_DOT":3e-7,"MEAN_MOTION_DDOT":0}]}
